0 COSMOS 2251 DEB
1 35471U 93036ALR 13281.57364661  .00125275  00000-0  83649-2 0  7693
2 35471 074.0529 336.4206 0041611 194.8728 290.6714 15.05657923239731
0 COSMOS 2251 DEB
1 35471U 93036ALR 13284.14725132  .00082732  00000-0  54890-2 0  7701
2 35471 074.0533 331.1468 0041024 188.6262 203.2741 15.06130051240124
0 COSMOS 2251 DEB
1 35471U 93036ALR 13285.56405429  .00072299  00000-0  47827-2 0  7723
2 35471 074.0542 328.2434 0040586 186.0822 324.9959 15.06307471240337
0 COSMOS 2251 DEB
1 35471U 93036ALR 13286.56052708  .00070879  00000-0  46756-2 0  7735
2 35471 074.0559 326.2014 0040067 183.9569 328.6516 15.06436041240487
0 COSMOS 2251 DEB
1 35471U 93036ALR 13287.55637718  .00097919  00000-0  64119-2 0  7743
2 35471 074.0549 324.1582 0040078 181.1707 330.0497 15.06568154240632
0 COSMOS 2251 DEB
1 35471U 93036ALR 13288.47051076  .00117283  00000-0  76210-2 0  7755
2 35471 074.0537 322.2834 0039830 178.7425 248.6420 15.06762231240778
0 COSMOS 2251 DEB
1 35471U 93036ALR 13289.06102604  .00102060  00000-0  66264-2 0  7761
2 35471 074.0535 321.0717 0039607 177.2650 212.0407 15.06876320240864
0 COSMOS 2251 DEB
1 35471U 93036ALR 13289.54956491  .00099892  00000-0  64755-2 0  7777
2 35471 074.0525 320.0682 0039589 176.2309 342.2137 15.06945436240931
0 COSMOS 2251 DEB
1 35471U 93036ALR 13290.73701769  .00105214  00000-0  67831-2 0  7781
2 35471 074.0519 317.6311 0039394 173.0343 304.9877 15.07126959241111
0 COSMOS 2251 DEB
1 35471U 93036ALR 13293.04378632  .00076157  00000-0  48864-2 0  7796
2 35471 074.0518 312.8932 0038648 167.9056 222.0202 15.07474227241464
0 COSMOS 2251 DEB
1 35471U 93036ALR 13294.11034458  .00087644  00000-0  55902-2 0  7806
2 35471 074.0512 310.7016 0038785 164.6762 251.2177 15.07628580241624
0 COSMOS 2251 DEB
1 35471U 93036ALR 13295.45002551  .00108926  00000-0  68961-2 0  7810
2 35471 074.0500 307.9465 0037933 161.4193 322.9619 15.07821106241822
